#aV2007  6 18  0  0   .00000000      96 DD+AD WGS84 FIT  NGA
## 1432  86400.00000000   900.00000000 54269  .0000000000000
+   30     1  2  3  4  5  6  7  8  9 10 11 12 13 14 16 17 18
+         19 20 21 22 23 24 25 26 27 28 29 30 31  0  0  0  0
+          0  0  0  0  0  0  0  0  0  0  0  0  0  0  0  0  0
+          0  0  0  0  0  0  0  0  0  0  0  0  0  0  0  0  0
+          0  0  0  0  0  0  0  0  0  0  0  0  0  0  0  0  0
++         0  0  0  0  0  0  0  0  0  0  0  0  0  0  0  0  0
++         0  0  0  0  0  0  0  0  0  0  0  0  0  0  0  0  0
++         0  0  0  0  0  0  0  0  0  0  0  0  0  0  0  0  0
++         0  0  0  0  0  0  0  0  0  0  0  0  0  0  0  0  0
++         0  0  0  0  0  0  0  0  0  0  0  0  0  0  0  0  0
%c cc cc ccc ccc cccc cccc cccc cccc ccccc ccccc ccccc ccccc
%c cc cc ccc ccc cccc cccc cccc cccc ccccc ccccc ccccc ccccc
%f  0.0000000  0.000000000  0.00000000000  0.000000000000000
%f  0.0000000  0.000000000  0.00000000000  0.000000000000000
%i    0    0    0    0      0      0      0      0         0
%i    0    0    0    0      0      0      0      0         0
/*      NGA, ST. LOUIS,MO.                                  
/*   EPHEMERIS COMPUTED FROM  3 DAYS OF DATA                
/* CCCCCCCCCCCCCCCCCCCCCCCCCCCCCCCCCCCCCCCCCCCCCCCCCCCCCCCCC
/* CCCCCCCCCCCCCCCCCCCCCCCCCCCCCCCCCCCCCCCCCCCCCCCCCCCCCCCCC
*  2007  6 18  3 30   .00000000                                                 
P  1  19957.099191  12426.330900 -12210.953977    134.770390                    
V  1   8499.931222  13375.542582  26982.720211       .022202                    
P  2 -15639.574850  -2196.385325 -21537.946192    115.020790                    
V  2   8172.409421 -25680.047606  -3638.092312       .028392                    
P  3  21675.772133   5627.872073  14321.156348     73.874177                    
V  3  11587.877736  14688.618720 -22636.259018       .055802                    
P  4 -10297.451246 -14043.501157 -20021.280365      9.415079                    
V  4   9910.935096 -23463.581616  11750.627110      -.009604                    
P  5 -16368.451743  15469.996097 -14198.206061     66.782598                    
V  5 -17782.034601   2338.371880  23597.871557       .515464                    
P  6    220.086143  19526.901930 -17794.200686    216.835308                    
V  6 -17307.958107 -15418.873200 -16992.074976       .094711                    
P  7   4085.786163  20705.695035 -15740.903840    250.050615                    
V  7 -16391.803704 -12945.445650 -20884.369484      -.188873                    
P  8  -1867.568489 -21826.817430  14581.088346   -111.471733                    
V  8   8833.613515 -16779.242211 -24228.279416      -.013266                    
P  9 -14287.074734  18268.819185  12141.487054     74.962224                    
V  9   2359.259312 -16469.757934  26485.579930       .014996                    
P 10 -26053.704030    172.937074  -6083.927220    103.492825                    
V 10   7029.955918  -3406.078474 -30484.445083       .004540                    
P 11  12686.118265 -20039.000711  11555.058440     18.632278                    
V 11   1813.014065  15617.695596  25156.143959       .008593                    
P 12 -21072.766547  11832.301357 -10837.139867    -47.089083                    
V 12 -14161.383160    233.227974  27582.405957      -.009190                    
P 13  -1328.357066 -19913.846745 -17649.204304    182.429082                    
V 13  14680.501022  16568.198970 -19882.206468       .033258                    
P 14  16054.410911  21144.448198   1813.435502     25.485190                    
V 14  -2834.137544   -491.699495  32189.220703       .018793                    
P 16  23847.242292   3623.672284 -11208.987074    156.373591                    
V 16 -13677.797443   4743.258862 -27208.526585       .027788                    
P 17 -14887.782063 -21712.508998   4036.092650     64.239452                    
V 17   5367.335246   2097.088162  31085.728386      -.014083                    
P 18  -1449.763565  15674.236618  21497.248165   -247.055188                    
V 18 -26816.546622   3501.843141  -4731.166152       .010756                    
P 19  16505.065682  -2492.030537  20788.180528     43.651283                    
V 19  15194.689699  21294.986101  -9439.639140       .031532                    
P 20  19562.177184 -13074.464936 -12399.293728    -25.765613                    
V 20  15791.754705   -704.585845  25913.398456      -.004233                    
P 21  -3971.781220  25006.607284   7069.335319     78.018653                    
V 21  -6711.872124   7066.125471 -29867.962108       .003193                    
P 22  11965.211950  12788.771951  20130.995127    187.049653                    
V 22 -24824.958403   4750.116371  11790.676376       .014409                    
P 23   8201.077132 -13144.306419 -21632.232010    174.658306                    
V 23  18261.667785  20256.107725  -5609.639057       .029737                    
P 24 -12634.953748  23090.981131  -4366.413736      8.340590                    
V 24   -345.529775  -6346.375006 -30818.910383       .029792                    
P 25   6954.046848 -25682.947512  -1030.861956    322.061754                    
V 25   2241.923440   2336.387548 -31601.230046       .210853                    
P 26 -17694.879936  -1663.818282  19481.968252   -256.592452                    
V 26 -15473.368008 -20221.093632 -14887.937221      -.215137                    
P 27   2162.154985 -25602.705646   6866.263555    117.284264                    
V 27   4675.611174  -6931.239788 -30383.801547       .023501                    
P 28  -8250.105007 -13818.403281  21519.750465     -1.222735                    
V 28  26032.767766  -4836.965179   6645.596582      -.009326                    
P 29 -19644.997110  -4986.101035  17568.707889      3.833427                    
V 29 -13543.437767 -16978.187166 -19831.590730       .003709                    
P 30 -10788.269062  16133.950896 -18396.012859     36.971942                    
V 30 -22605.559149   3519.533157  16738.456117       .010877                    
P 31  10828.018275  12544.598345 -20545.296657     17.745245                    
V 31  -9435.146162  24827.849836  10162.274078      -.007102                    
EOF
